CUTE-1 (CO-55)          
1 27844U 03031E   22232.92834133  .00000152  00000+0  87968-4 0  9995
2 27844  98.6798 239.6434 0008631 276.7595  83.2601 14.22481851993034
CUBESAT XI-IV (CO-57)   
1 27848U 03031J   22232.70040011  .00000129  00000+0  78226-4 0  9990
2 27848  98.6843 239.9251 0008614 293.5516  66.4756 14.22035004992814
GALAXY 23 (G-23)        
1 27854U 03034A   22232.62582019  .00000008  00000+0  00000+0 0  9996
2 27854   0.0639 269.0492 0003003 247.9820 276.2120  1.00272644 69737
SCISAT 1                
1 27858U 03036A   22232.89886775  .00000288  00000+0  45193-4 0  9994
2 27858  73.9321  56.8433 0006783  79.3380 280.8558 14.77610539 24959
COSMOS 2400             
1 27868U 03037A   22232.58767031  .00000044  00000+0  24287-3 0  9995
2 27868  82.4718 125.5362 0020626 231.2983 128.6260 12.45147406863838
COSMOS 2401             
1 27869U 03037B   22232.58144409  .00000033  00000+0  16299-3 0  9996
2 27869  82.4701 122.5264 0021560 227.5642 132.3627 12.45463622864052
USA 170                 
1 27875U 03040A   22232.85672677 -.00000280  00000+0  00000+0 0  9994
2 27875   7.5139  59.4610 0004414 107.4112  68.3342  1.00275408 18967
MOZHAYETS 4 (RS-22)     
1 27939U 03042A   22232.90429324  .00000626  00000+0  11932-3 0  9995
2 27939  98.2013  13.6401 0012898  11.0888 349.0606 14.67431359 10499
GALAXY 13 (HORIZONS-1)  
1 27954U 03044A   22232.62679455  .00000043  00000+0  00000+0 0  9998
2 27954   0.0235 100.4764 0000952 257.8440  69.2552  1.00273098 32562
IRS-P6 (RESOURCESAT-1)  
1 28051U 03046A   22232.84782506  .00000085  00000+0  44611-4 0  9992
2 28051  98.4012 302.0343 0058533 185.0382 175.0209 14.34224176980250
DMSP 5D-3 F16 (USA 172) 
1 28054U 03048A   22232.93171446  .00000025  00000+0  37085-4 0  9993
2 28054  98.9924 224.0850 0008123 129.1437 291.4608 14.13678632972148
CHUANGXIN 1 (CX-1)      
1 28058U 03049B   22232.57108016  .00000091  00000+0  37532-4 0  9991
2 28058  98.6868  88.4497 0014050  87.5987 272.6813 14.47162617994206
YAMAL 202               
1 28089U 03053A   22232.98606534 -.00000086  00000+0  00000+0 0  9993
2 28089   2.7941  87.3140 0007091  47.5520 352.8419  1.00272160 68684
UFO 11 (USA 174)        
1 28117U 03057A   22232.59146344 -.00000099  00000+0  00000+0 0  9998
2 28117   7.0699  37.8536 0004877  75.4801 142.9529  1.00272497 68441
USA 176 (DSP 22)        
1 28158U 04004A   22232.45208359 -.00000224  00000+0  00000+0 0  9996
2 28158  10.1720  34.9084 0000818 203.7317 340.1811  1.00269586 18920
ABS-4 (MOBISAT-1)       
1 28184U 04007A   22232.87730604  .00000034  00000+0  00000+0 0  9995
2 28184   2.4806  88.4756 0005220  63.1198 194.3711  1.00272497 38335
EUTELSAT 7A             
1 28187U 04008A   22232.60986309  .00000098  00000+0  00000+0 0  9995
2 28187   2.2665  87.6806 0003960  66.3343 255.2299  1.00274293 67349
NAVSTAR 54 (USA 177)    
1 28190U 04009A   22232.40463973 -.00000104  00000+0  00000+0 0  9994
2 28190  55.9637 331.5208 0090187 124.1322 261.4769  2.00559223134932
SHIYAN 1 (SY-1)         
1 28220U 04012A   22232.88748770  .00001411  00000+0  11206-3 0  9990
2 28220  97.9780 226.8511 0012533 112.2423 248.0131 15.02153346999747
AMC-11 (GE-11)          
1 28252U 04017A   22232.69558049  .00000065  00000+0  00000+0 0  9997
2 28252   0.0541 293.2100 0002653 214.7963 300.3898  1.00271439 66882
INTELSAT 10-02          
1 28358U 04022A   22231.93226340 -.00000016  00000+0  00000+0 0  9999
2 28358   0.0440 273.8236 0000702 279.7213 109.3227  1.00271722 66533
APRIZESAT 2             
1 28366U 04025A   22232.90892531  .00000049  00000+0  28847-4 0  9999
2 28366  98.1571  98.7297 0108274 140.7768 220.1329 14.36835182951077
SAUDICOMSAT 1           
1 28369U 04025D   22232.89872019  .00000222  00000+0  65233-4 0  9992
2 28369  98.4455 194.9538 0033032 339.7491  20.2392 14.52833037961203
SAUDICOMSAT 2           
1 28370U 04025E   22232.88647884  .00000136  00000+0  48704-4 0  9991
2 28370  98.5372 194.1114 0057898 165.3346 194.9543 14.47726413957951
SAUDISAT 2              
1 28371U 04025F   22232.74250156  .00000251  00000+0  69779-4 0  9992
2 28371  98.3824 189.6296 0024288 267.4186  92.4259 14.54586919962635
APRIZESAT 1             
1 28372U 04025G   22232.85485428  .00000144  00000+0  48811-4 0  9992
2 28372  98.4982 194.2547 0047461  79.7884 280.8657 14.49827124959439
AURA                    
1 28376U 04026A   22232.83960239  .00000362  00000+0  90360-4 0  9991
2 28376  98.2111 175.2574 0001591  80.5466 279.5913 14.57118364962605
ANIK F2                 
1 28378U 04027A   22232.62782580 -.00000054  00000+0  00000+0 0  9998
2 28378   0.0440 110.3472 0003135  44.3873 289.0979  1.00271093 27250
COSMOS 2407             
1 28380U 04028A   22232.70974359  .00000023  00000+0  77673-5 0  9999
2 28380  82.9607  28.8463 0038619 196.0053 163.9880 13.76117893907992
SHIJIAN-6 01A (SJ-6 01A)
1 28413U 04035A   22232.96382131  .00001591  00000+0  14903-3 0  9999
2 28413  97.7092 252.4687 0011498 191.3508 168.7456 14.95403455977660
SHIJIAN-6 01B (SJ-6 01B)
1 28414U 04035B   22232.90792068 -.00000177  00000+0 -11069-4 0  9990
2 28414  97.7142 252.2661 0005937 179.0296 181.0941 14.94724079977580
COSMOS 2408             
1 28419U 04037A   22232.59548631  .00000044  00000+0  23554-3 0  9999
2 28419  82.4846 120.7284 0016886  89.0274 271.2753 12.45631993814194
COSMOS 2409             
1 28420U 04037B   22232.56263720  .00000053  00000+0  30322-3 0  9992
2 28420  82.4849 123.3794 0014458  96.9769 263.2956 12.45283373813991
AMC-15                  
1 28446U 04041A   22232.62895941 -.00000093  00000+0  00000+0 0  9999
2 28446   0.0638 289.1927 0002900 214.8735 306.2326  1.00272196 65328
JB-3 3 (ZY 2C)          
1 28470U 04044A   22232.48485174  .00001328  00000+0  97694-4 0  9997
2 28470  97.2318  81.9494 0045301  21.4174 338.8935 15.04177083976838
NAVSTAR 56 (USA 180)    
1 28474U 04045A   22232.52130297 -.00000091  00000+0  00000+0 0  9997
2 28474  55.3738  20.8771 0201695 279.6858  82.1911  2.00422905130427
SWIFT                   
1 28485U 04047A   22232.66408361  .00002890  00000+0  15885-3 0  9995
2 28485  20.5555 219.5180 0010676  34.6156 325.4972 15.06734286973241
HELIOS 2A               
1 28492U 04049A   22232.92176270  .00000903  00000+0  92236-4 0  9994
2 28492  98.2360 178.9687 0013374 226.2739 133.7394 14.93268725944745
NANOSAT-1               
1 28493U 04049B   22232.86083333  .00000414  00000+0  70683-4 0  9994
2 28493  98.1151 333.7055 0005845  89.0051 271.1827 14.74066202949354
COSMOS 2414             
1 28521U 05002A   22232.71140347  .00000094  00000+0  65834-4 0  9995
2 28521  82.9513  19.6455 0040299 352.9019   7.1570 13.87662886890463
NSS-10 (AMC-12)         
1 28526U 05003A   22232.85768596 -.00000257  00000+0  00000+0 0  9999
2 28526   2.9409  86.6830 0002709  60.6142  93.1709  1.00271872 39152
XTAR-EUR                
1 28542U 05005A   22232.00749305  .00000145  00000+0  00000+0 0  9998
2 28542   0.7339  94.0475 0002839  53.6914 212.2708  1.00271185 64180
XM-3 (RHYTHM)           
1 28626U 05008A   22231.91552094 -.00000210  00000+0  00000+0 0  9994
2 28626   0.0151 198.9353 0001541 337.8880  35.8817  1.00270815 28612
INMARSAT 4-F1           
1 28628U 05009A   22232.73244090 -.00000266  00000+0  00000+0 0  9993
2 28628   3.6566  35.6975 0002799 129.2733 211.2499  1.00271782 63660
IRS-P5 (CARTOSAT-1)     
1 28649U 05017A   22232.73695313  .00000554  00000+0  72335-4 0  9997
2 28649  97.7142 291.0456 0002057  50.4493 309.6903 14.84233423936278
NOAA 18                 
1 28654U 05018A   22232.86768254  .00000092  00000+0  73759-4 0  9991
2 28654  98.9454 303.2422 0014974 146.4839 213.7283 14.12766315889076
DIRECTV 8               
1 28659U 05019A   22232.62616898 -.00000003  00000+0  00000+0 0  9994
2 28659   0.0158 128.0185 0002639  32.4944 274.7828  1.00271874 63060
GALAXY 28 (G-28)        
1 28702U 05022A   22232.34521627 -.00000189  00000+0  00000+0 0  9996
2 28702   0.0149  40.3609 0003142  98.6367 224.9171  1.00269088 37972
SJ-7                    
1 28737U 05024A   22232.92805327  .00001561  00000+0  13725-3 0  9998
2 28737  97.7172 230.3611 0034040 107.2117 253.2836 14.97571515937641
THAICOM 4               
1 28786U 05028A   22232.57340824 -.00000367  00000+0  00000+0 0  9995
2 28786   0.0169 120.3120 0002166  34.5903 139.8829  1.00272764 62329
GALAXY 14 (G-14)        
1 28790U 05030A   22232.90223779  .00000150  00000+0  00000+0 0  9998
2 28790   1.4212  91.5982 0001688  66.2095 169.0914  1.00274659 62296
REIMEI (INDEX)          
1 28810U 05031B   22232.91238001  .00001229  00000+0  12744-3 0  9997
2 28810  98.0516 296.7652 0028752 104.1999 256.2416 14.91637450921721
ANIK F1R                
1 28868U 05036A   22232.70002770 -.00000079  00000+0  00000+0 0  9995
2 28868   0.7183  93.2268 0002472  38.8218 341.6456  1.00272388 32452
NAVSTAR 57 (USA 183)    
1 28874U 05038A   22232.40734479 -.00000101  00000+0  00000+0 0  9995
2 28874  56.0271 328.9579 0138788 274.7399 138.2508  2.00572493123826
GALAXY 15 (G-15)        
1 28884U 05041A   22232.69514448  .00000074  00000+0  00000+0 0  9991
2 28884   0.0193 270.4503 0001762 245.8919 289.9631  1.00275281 61607
SYRACUSE 3A             
1 28885U 05041B   22232.80283692  .00000124  00000+0  00000+0 0  9995
2 28885   1.2790  92.6811 0003019  60.6336 151.7946  1.00270104 61720
BEIJING 1               
1 28890U 05043A   22232.89982245  .00000145  00000+0  38727-4 0  9997
2 28890  98.1254 354.1434 0014713 337.6216  22.4338 14.61479586896552
SINAH 1                 
1 28893U 05043D   22232.87509087  .00000142  00000+0  37846-4 0  9995
2 28893  98.1188 355.2782 0014526 335.5887  24.4624 14.61733627896360
CUBESAT XI-V            
1 28895U 05043F   22232.88424178  .00000559  00000+0  11449-3 0  9997
2 28895  98.1145   3.3010 0015402 300.7773  59.1913 14.64432875896845
